[{"OBJECT_NAME":"XM-5","OBJECT_ID":"2010-053A","EPOCH":"2022-08-18T16:33:13.415904","MEAN_MOTION":1.00272021,"ECCENTRICITY":7.12e-5,"INCLINATION":0.018,"RA_OF_ASC_NODE":110.9237,"ARG_OF_PERICENTER":233.7881,"MEAN_ANOMALY":115.406,"EPHEMERIS_TYPE":0,"CLASSIFICATION_TYPE":"U","NORAD_CAT_ID":37185,"ELEMENT_SET_NO":999,"REV_AT_EPOCH":4346,"BSTAR":0,"MEAN_MOTION_DOT":-3.0e-7,"MEAN_MOTION_DDOT":0},{"OBJECT_NAME":"BSAT-3B","OBJECT_ID":"2010-056B","EPOCH":"2022-08-16T21:04:42.812256","MEAN_MOTION":1.00270923,"ECCENTRICITY":0.0001067,"INCLINATION":0.1036,"RA_OF_ASC_NODE":294.3775,"ARG_OF_PERICENTER":338.9127,"MEAN_ANOMALY":117.9651,"EPHEMERIS_TYPE":0,"CLASSIFICATION_TYPE":"U","NORAD_CAT_ID":37207,"ELEMENT_SET_NO":999,"REV_AT_EPOCH":3807,"BSTAR":0,"MEAN_MOTION_DOT":-3.62e-6,"MEAN_MOTION_DDOT":0},{"OBJECT_NAME":"BEIDOU 6","OBJECT_ID":"2010-057A","EPOCH":"2022-08-18T21:18:50.383296","MEAN_MOTION":1.00273263,"ECCENTRICITY":0.0005968,"INCLINATION":0.9609,"RA_OF_ASC_NODE":53.8432,"ARG_OF_PERICENTER":130.9625,"MEAN_ANOMALY":262.1508,"EPHEMERIS_TYPE":0,"CLASSIFICATION_TYPE":"U","NORAD_CAT_ID":37210,"ELEMENT_SET_NO":999,"REV_AT_EPOCH":4326,"BSTAR":0,"MEAN_MOTION_DOT":-1.18e-6,"MEAN_MOTION_DDOT":0},{"OBJECT_NAME":"SKYTERRA 1","OBJECT_ID":"2010-061A","EPOCH":"2022-08-18T14:37:42.805344","MEAN_MOTION":1.00271867,"ECCENTRICITY":0.000136,"INCLINATION":2.516,"RA_OF_ASC_NODE":34.5761,"ARG_OF_PERICENTER":160.6849,"MEAN_ANOMALY":249.7933,"EPHEMERIS_TYPE":0,"CLASSIFICATION_TYPE":"U","NORAD_CAT_ID":37218,"ELEMENT_SET_NO":999,"REV_AT_EPOCH":4317,"BSTAR":0,"MEAN_MOTION_DOT":-1.25e-6,"MEAN_MOTION_DDOT":0},{"OBJECT_NAME":"ZHONGXING-20A","OBJECT_ID":"2010-064A","EPOCH":"2022-08-18T21:05:16.699200","MEAN_MOTION":1.00272568,"ECCENTRICITY":0.000249,"INCLINATION":2.8036,"RA_OF_ASC_NODE":87.9204,"ARG_OF_PERICENTER":64.7197,"MEAN_ANOMALY":243.7065,"EPHEMERIS_TYPE":0,"CLASSIFICATION_TYPE":"U","NORAD_CAT_ID":37234,"ELEMENT_SET_NO":999,"REV_AT_EPOCH":4300,"BSTAR":0,"MEAN_MOTION_DOT":-3.66e-6,"MEAN_MOTION_DDOT":0},{"OBJECT_NAME":"HYLAS 1","OBJECT_ID":"2010-065A","EPOCH":"2022-08-17T06:48:56.565792","MEAN_MOTION":1.00269492,"ECCENTRICITY":0.0001809,"INCLINATION":2.0666,"RA_OF_ASC_NODE":89.6186,"ARG_OF_PERICENTER":51.7282,"MEAN_ANOMALY":207.4847,"EPHEMERIS_TYPE":0,"CLASSIFICATION_TYPE":"U","NORAD_CAT_ID":37237,"ELEMENT_SET_NO":999,"REV_AT_EPOCH":4294,"BSTAR":0,"MEAN_MOTION_DOT":-2.44e-6,"MEAN_MOTION_DDOT":0},{"OBJECT_NAME":"INTELSAT 17 (IS-17)","OBJECT_ID":"2010-065B","EPOCH":"2022-08-18T10:31:57.689760","MEAN_MOTION":1.00273392,"ECCENTRICITY":0.0002491,"INCLINATION":0.0345,"RA_OF_ASC_NODE":224.042,"ARG_OF_PERICENTER":286.516,"MEAN_ANOMALY":40.205,"EPHEMERIS_TYPE":0,"CLASSIFICATION_TYPE":"U","NORAD_CAT_ID":37238,"ELEMENT_SET_NO":999,"REV_AT_EPOCH":4289,"BSTAR":0,"MEAN_MOTION_DOT":-9.0e-8,"MEAN_MOTION_DDOT":0},{"OBJECT_NAME":"BEIDOU 7","OBJECT_ID":"2010-068A","EPOCH":"2022-08-18T14:20:02.179680","MEAN_MOTION":1.00287845,"ECCENTRICITY":0.0023792,"INCLINATION":50.1034,"RA_OF_ASC_NODE":288.9052,"ARG_OF_PERICENTER":200.1989,"MEAN_ANOMALY":160.1397,"EPHEMERIS_TYPE":0,"CLASSIFICATION_TYPE":"U","NORAD_CAT_ID":37256,"ELEMENT_SET_NO":999,"REV_AT_EPOCH":4277,"BSTAR":0,"MEAN_MOTION_DOT":-1.9e-6,"MEAN_MOTION_DDOT":0},{"OBJECT_NAME":"EUTELSAT KA-SAT 9A","OBJECT_ID":"2010-069A","EPOCH":"2022-08-18T22:01:05.043936","MEAN_MOTION":1.00271526,"ECCENTRICITY":0.0005173,"INCLINATION":0.0722,"RA_OF_ASC_NODE":276.482,"ARG_OF_PERICENTER":235.1553,"MEAN_ANOMALY":154.8492,"EPHEMERIS_TYPE":0,"CLASSIFICATION_TYPE":"U","NORAD_CAT_ID":37258,"ELEMENT_SET_NO":999,"REV_AT_EPOCH":2997,"BSTAR":0,"MEAN_MOTION_DOT":5.5e-7,"MEAN_MOTION_DDOT":0},{"OBJECT_NAME":"HISPASAT 30W-5","OBJECT_ID":"2010-070A","EPOCH":"2022-08-18T20:34:42.650112","MEAN_MOTION":1.00270956,"ECCENTRICITY":0.0005732,"INCLINATION":0.0242,"RA_OF_ASC_NODE":123.1037,"ARG_OF_PERICENTER":24.3794,"MEAN_ANOMALY":98.38,"EPHEMERIS_TYPE":0,"CLASSIFICATION_TYPE":"U","NORAD_CAT_ID":37264,"ELEMENT_SET_NO":999,"REV_AT_EPOCH":3916,"BSTAR":0,"MEAN_MOTION_DOT":-2.23e-6,"MEAN_MOTION_DDOT":0},{"OBJECT_NAME":"KOREASAT 6","OBJECT_ID":"2010-070B","EPOCH":"2022-08-18T21:06:16.971840","MEAN_MOTION":1.00269728,"ECCENTRICITY":0.0001426,"INCLINATION":0.0139,"RA_OF_ASC_NODE":73.1592,"ARG_OF_PERICENTER":92.9363,"MEAN_ANOMALY":233.6711,"EPHEMERIS_TYPE":0,"CLASSIFICATION_TYPE":"U","NORAD_CAT_ID":37265,"ELEMENT_SET_NO":999,"REV_AT_EPOCH":4274,"BSTAR":0,"MEAN_MOTION_DOT":-3.69e-6,"MEAN_MOTION_DDOT":0}]